BEIJING 1               
1 28890U 05043A   22307.59361653  .00000434  00000+0  96759-4 0  9991
2 28890  98.1351  67.5710 0016461  98.0594 262.2474 14.61531393907464
HJ-1A                   
1 33320U 08041A   22307.41863951  .00000581  00000+0  86979-4 0  9991
2 33320  97.6664 333.8886 0021853 136.7816 223.5119 14.77968903762913
HJ-1B                   
1 33321U 08041B   22307.43774767  .00001291  00000+0  18408-3 0  9990
2 33321  97.6823 337.7501 0034710 155.9378 204.3471 14.77987193762910
YAOGAN 4                
1 33446U 08061A   22307.41822527  .00001094  00000+0  15998-3 0  9998
2 33446  97.8286 243.3920 0017378  47.8863 312.3822 14.77550800750119
DEIMOS-1                
1 35681U 09041A   22307.39809593  .00000489  00000+0  84942-4 0  9998
2 35681  97.6979 151.2448 0002631 111.3608 248.7888 14.72157332712212
UK-DMC 2                
1 35683U 09041C   22307.41442243  .00000798  00000+0  13572-3 0  9991
2 35683  97.7089 113.0736 0001363 100.0344 260.1036 14.71569203711941
RISAT 1                 
1 38248U 12017A   22307.47665503  .00005105  00000+0  29385-3 0  9996
2 38248  97.5519 317.3814 0005328 125.0077 235.1655 15.12870720579854
DMC3-FM1                
1 40715U 15032A   22307.46863188  .00000733  00000+0  98257-4 0  9993
2 40715  97.8252 191.4078 0007435  70.1590 290.0425 14.82256982393883
DMC3-FM2                
1 40716U 15032B   22307.42433598  .00000732  00000+0  98126-4 0  9992
2 40716  97.8300 192.0781 0009393  72.2949 287.9279 14.82249669393888
DMC3-FM3                
1 40717U 15032C   22307.51232164  .00007213  00000+0  90731-3 0  9993
2 40717  97.8342 193.1389 0011282  71.2232 289.1103 14.82311181393895
